[{"OBJECT_NAME":"STARLINK-6220","OBJECT_ID":"2023-064AL","EPOCH":"2026-03-09T13:55:59.837088","MEAN_MOTION":14.98330554,"ECCENTRICITY":0.0003282,"INCLINATION":69.9998,"RA_OF_ASC_NODE":124.7071,"ARG_OF_PERICENTER":269.8057,"MEAN_ANOMALY":90.2726,"EPHEMERIS_TYPE":0,"CLASSIFICATION_TYPE":"U","NORAD_CAT_ID":56482,"ELEMENT_SET_NO":999,"REV_AT_EPOCH":15572,"BSTAR":-3.4061e-5,"MEAN_MOTION_DOT":-4.99e-6,"MEAN_MOTION_DDOT":0},{"OBJECT_NAME":"DOVE 3","OBJECT_ID":"2013-066P","EPOCH":"2026-03-09T13:43:10.410528","MEAN_MOTION":14.75674186,"ECCENTRICITY":0.0114756,"INCLINATION":97.6762,"RA_OF_ASC_NODE":293.4727,"ARG_OF_PERICENTER":348.5904,"MEAN_ANOMALY":11.2708,"EPHEMERIS_TYPE":0,"CLASSIFICATION_TYPE":"U","NORAD_CAT_ID":39429,"ELEMENT_SET_NO":999,"REV_AT_EPOCH":65631,"BSTAR":0.00054674,"MEAN_MOTION_DOT":4.106e-5,"MEAN_MOTION_DDOT":0}]
